{
  "norad_id": "69235",
  "name": "TJS-24",
  "line1": "1 69235U 26116A   26171.40987872 -.00000236  00000+0  00000+0 0  9993",
  "line2": "2 69235   0.0266 113.8029 0000350 295.1444  97.5164  1.00272191   265",
  "fetched_at": "2026-06-22T01:53:06.178673+00:00"
}